ORBCOMM FM06            
1 25118U 97084G   26167.40423225  .00001010  00000+0  31096-3 0  9992
2 25118  45.0145  56.4813 0001245 329.5459 201.1029 14.47560986494275
ORBCOMM FM04            
1 25159U 98007C   26167.90674410  .00000689  00000+0  28128-3 0  9995
2 25159 107.9627 168.8422 0041335 325.2464  34.5978 14.35740945476554
ORBCOMM FM19            
1 25415U 98046C   26167.96377247  .00000555  00000+0  22169-3 0  9998
2 25415  44.9931 244.6234 0004563 280.6774 249.5203 14.39495242456740
ORBCOMM FM20            
1 25416U 98046D   26167.94348389  .00000434  00000+0  18843-3 0  9992
2 25416  44.9939 252.6402 0002269 249.6540 110.4065 14.38066172456750
ORBCOMM FM27            
1 25481U 98053G   26168.18752568  .00000713  00000+0  27405-3 0  9991
2 25481  45.0066 335.3525 0001012 194.8422 165.2397 14.39141267450238
ORBCOMM FM32            
1 25982U 99065C   26167.73430241  .00000343  00000+0  16182-3 0  9991
2 25982  45.0139 175.3840 0004505  32.3799 327.7325 14.37129394387027
ORBCOMM FM109           
1 40086U 14040A   26168.09830529  .00000333  00000+0  10662-3 0  9992
2 40086  47.0033  91.9065 0001915 246.6626 113.4059 14.58844767634331
ORBCOMM FM110           
1 41182U 15081D   26167.96694618  .00000564  00000+0  15550-3 0  9995
2 41182  47.0034   2.4845 0002511  74.4625 285.6538 14.58880402557594
ORBCOMM FM118           
1 41183U 15081E   26165.94661219  .00002342  00000+0  53124-3 0  9998
2 41183  47.0047  12.3690 0002883  17.4423 342.6561 14.58877028557402
ORBCOMM FM112           
1 41184U 15081F   26168.00576272  .00000474  00000+0  13636-3 0  9991
2 41184  46.9989 271.1052 0003718 216.9657 143.0973 14.58904252558924
ORBCOMM FM113           
1 41185U 15081G   26167.98238227  .00000280  00000+0  95480-4 0  9996
2 41185  47.0010 271.5920 0002254 223.6251 136.4456 14.58858314558906
ORBCOMM FM108           
1 41187U 15081J   26168.15023926  .00000279  00000+0  95355-4 0  9995
2 41187  47.0031 182.3720 0002952 221.4938 138.5724 14.58869994560079
ORBCOMM FM117           
1 41188U 15081K   26167.77331926  .00000187  00000+0  75792-4 0  9996
2 41188  46.9995 182.7879 0003453 223.2090 136.8525 14.58864783560062
ORBCOMM FM116           
1 41189U 15081L   26167.75377462  .00000488  00000+0  13931-3 0  9990
2 41189  47.0020 272.6710 0000582  62.4502 297.6443 14.58882754558877
